API VERSION: 1.2
API SOURCE: NASA/JPL Horizons API



*******************************************************************************
Ephemeris / API_USER Wed Apr 15 12:09:42 2026 Pasadena, USA      / Horizons
*******************************************************************************
Target body name: Jupiter (599)                   {source: jup365_merged}
Center body name: Sun (10)                        {source: jup365_merged}
Center-site name: BODY CENTER
*******************************************************************************
Start time      : A.D. 1800-Jan-01 00:00:00.0000 TDB
Stop  time      : A.D. 1899-Dec-18 00:00:00.0000 TDB
Step-size       : 43200 minutes
*******************************************************************************
Center geodetic : 0.0, 0.0, 0.0                   {E-lon(deg),Lat(deg),Alt(km)}
Center cylindric: 0.0, 0.0, 0.0                   {E-lon(deg),Dxy(km),Dz(km)}
Center radii    : 695700.0, 695700.0, 695700.0 km {Equator_a, b, pole_c}
Output units    : AU-D
Calendar mode   : Mixed Julian/Gregorian
Output type     : GEOMETRIC cartesian states
Output format   : 3 (position, velocity, LT, range, range-rate)
Reference frame : Ecliptic of J2000.0
*******************************************************************************
            JDTDB,            Calendar Date (TDB),                      X,                      Y,                      Z,                     VX,                     VY,                     VZ,                     LT,                     RG,                     RR,
**************************************************************************************************************************************************************************************************************************************************************************
$$SOE
2392896.500000000, A.D. 1839-Jun-06 00:00:00.0000, -5.096548141449857E+00, -1.936769014240786E+00,  1.222727449506456E-01,  2.597747713957744E-03, -6.704647775913268E-03, -3.135991422822798E-05,  3.149687688137275E-02,  5.453515178011058E+00, -4.731382862455704E-05,
2392926.500000000, A.D. 1839-Jul-06 00:00:00.0000, -5.014478188491228E+00, -2.136248042176653E+00,  1.212317233764871E-01,  2.873948864126584E-03, -6.592711642556204E-03, -3.804051011022399E-05,  3.148756466360281E-02,  5.451902817485899E+00, -6.095087947807537E-05,
2392956.500000000, A.D. 1839-Aug-05 00:00:00.0000, -4.924158907795265E+00, -2.332213334456494E+00,  1.199912100129393E-01,  3.146433025015346E-03, -6.469809853250642E-03, -4.464827918817673E-05,  3.147575778022238E-02,  5.449858518999966E+00, -7.521604393527606E-05,
2392986.500000000, A.D. 1839-Sep-04 00:00:00.0000, -4.825732355585981E+00, -2.524337605331871E+00,  1.185531140678661E-01,  3.413963071267251E-03, -6.336928866244294E-03, -5.122615296915721E-05,  3.146148497532570E-02,  5.447387259438901E+00, -8.892285628002761E-05,
2393016.500000000, A.D. 1839-Oct-04 00:00:00.0000, -4.719350366842456E+00, -2.712299620756633E+00,  1.169195987341434E-01,  3.677368395070768E-03, -6.193573628827997E-03, -5.771371869953365E-05,  3.144477086833834E-02,  5.444493301524097E+00, -1.033540337661740E-04,
2393046.500000000, A.D. 1839-Nov-03 00:00:00.0000, -4.605174080460362E+00, -2.895781760433653E+00,  1.150930984807829E-01,  3.934047557912392E-03, -6.038655758560054E-03, -6.409605421204163E-05,  3.142562790569953E-02,  5.441178800289701E+00, -1.172028486302246E-04,
2393076.500000000, A.D. 1839-Dec-03 00:00:00.0000, -4.483377857449134E+00, -3.074474092394972E+00,  1.130762305387210E-01,  4.184640212865195E-03, -5.873462605612534E-03, -7.038259134650351E-05,  3.140408773734689E-02,  5.437449235752544E+00, -1.308468779058288E-04,
2393106.500000000, A.D. 1840-Jan-02 00:00:00.0000, -4.354147572715145E+00, -3.248071917444736E+00,  1.108718745285456E-01,  4.428560742111420E-03, -5.697818425228738E-03, -7.656176448426899E-05,  3.138018537588072E-02,  5.433310670156437E+00, -1.443266513093340E-04,
2393136.500000000, A.D. 1840-Feb-01 00:00:00.0000, -4.217681485944701E+00, -3.416275311014951E+00,  1.084831442324582E-01,  4.666439442860788E-03, -5.513815448794775E-03, -8.267794177298247E-05,  3.135396011873683E-02,  5.428769907641469E+00, -1.572755585212823E-04,
2393166.500000000, A.D. 1840-Mar-02 00:00:00.0000, -4.074186927683040E+00, -3.578788234093775E+00,  1.059136627297440E-01,  4.897743278012234E-03, -5.319465428999887E-03, -8.863647952308878E-05,  3.132543501230226E-02,  5.423830938565862E+00, -1.708145357300288E-04,
2393196.500000000, A.D. 1840-Apr-01 00:00:00.0000, -3.923884244228161E+00, -3.735321654021889E+00,  1.031673181784981E-01,  5.120826804653306E-03, -5.115571978705760E-03, -9.447352217026454E-05,  3.129464430239951E-02,  5.418499692409973E+00, -1.836248902529263E-04,
2393226.500000000, A.D. 1840-May-01 00:00:00.0000, -3.767004753040507E+00, -3.885596201594517E+00,  1.002481959735644E-01,  5.336039812980032E-03, -4.901305501691166E-03, -1.001189922028697E-04,  3.126163413449638E-02,  5.412784159013868E+00, -1.970206117047489E-04,
2393256.500000000, A.D. 1840-May-31 00:00:00.0000, -3.603794176821723E+00, -4.029340007608091E+00,  9.716068711265213E-02,  5.542143966555167E-03, -4.678717474165139E-03, -1.056525597190037E-04,  3.122646754945977E-02,  5.406695253565299E+00, -2.091606560185319E-04,
2393286.500000000, A.D. 1840-Jun-30 00:00:00.0000, -3.434507815607673E+00, -4.166290908418168E+00,  9.390934965997569E-02,  5.740877554183070E-03, -4.448397106593614E-03, -1.110394246207941E-04,  3.118921226717738E-02,  5.400244701399339E+00, -2.211381358139325E-04,
2393316.500000000, A.D. 1840-Jul-30 00:00:00.0000, -3.259408690506279E+00, -4.296191606954435E+00,  9.049908492969634E-02,  5.930299913251046E-03, -4.209743556444966E-03, -1.162715834900747E-04,  3.114991286711916E-02,  5.393440221211939E+00, -2.324914266978067E-04,
2393346.500000000, A.D. 1840-Aug-29 00:00:00.0000, -3.078770454665598E+00, -4.418794389040754E+00,  8.693507775096747E-02,  6.110871512047422E-03, -3.962724946655340E-03, -1.213056054998798E-04,  3.110862151694015E-02,  5.386290845552571E+00, -2.439618754133217E-04,
2393376.500000000, A.D. 1840-Sep-28 00:00:00.0000, -2.892878112004119E+00, -4.533860414482218E+00,  8.322280436946435E-02,  6.280819438046486E-03, -3.706540524077200E-03, -1.261203918876471E-04,  3.106539591762666E-02,  5.378806565037314E+00, -2.556708067226119E-04,
2393406.500000000, A.D. 1840-Oct-28 00:00:00.0000, -2.702030620196378E+00, -4.641161810700404E+00,  7.936794649574910E-02,  6.440737345767948E-03, -3.443893874529164E-03, -1.307711332127331E-04,  3.102031470920981E-02,  5.371000995765466E+00, -2.662036055790729E-04,
2393436.500000000, A.D. 1840-Nov-27 00:00:00.0000, -2.506536262801743E+00, -4.740480221009276E+00,  7.537661413423830E-02,  6.590530742037014E-03, -3.174377679685167E-03, -1.352165970235715E-04,  3.097345294347456E-02,  5.362887132550770E+00, -2.762545293431021E-04,
2393466.500000000, A.D. 1840-Dec-27 00:00:00.0000, -2.306712423637585E+00, -4.831608118796366E+00,  7.125512133435738E-02,  6.729681241081044E-03, -2.899298192648948E-03, -1.394920707233089E-04,  3.092488684676614E-02,  5.354478173575769E+00, -2.848281596251691E-04,
2393496.500000000, A.D. 1841-Jan-26 00:00:00.0000, -2.102882397467101E+00, -4.914349414947709E+00,  6.701002877161306E-02,  6.858263911756692E-03, -2.616569222254990E-03, -1.434879136117391E-04,  3.087468878568580E-02,  5.345786648729057E+00, -2.942508302779900E-04,
2393526.500000000, A.D. 1841-Feb-25 00:00:00.0000, -1.895381658603851E+00, -4.988518863415154E+00,  6.264814414458644E-02,  6.974483792049199E-03, -2.327429405459531E-03, -1.472585163329376E-04,  3.082293916410099E-02,  5.336826479508723E+00, -3.031967863764219E-04,
2393556.500000000, A.D. 1841-Mar-27 00:00:00.0000, -1.684555700173593E+00, -5.053944753202614E+00,  5.817639253974258E-02,  7.079588779464882E-03, -2.032664025200955E-03, -1.507785087613884E-04,  3.076973179679049E-02,  5.327613909440184E+00, -3.119148132923497E-04,
2393586.500000000, A.D. 1841-Apr-26 00:00:00.0000, -1.470759468782849E+00, -5.110464307641975E+00,  5.360206156800618E-02,  7.172061915304374E-03, -1.733608347738728E-03, -1.540966080218159E-04,  3.071514482330822E-02,  5.318162467967796E+00, -3.191129067933343E-04,
2393616.500000000, A.D. 1841-May-26 00:00:00.0000, -1.254355992791319E+00, -5.157928786618004E+00,  4.893274881900937E-02,  7.253248936675891E-03, -1.430620238885459E-03, -1.571653768582581E-04,  3.065926316972260E-02,  5.308486859584487E+00, -3.252922231223245E-04,
2393646.500000000, A.D. 1841-Jun-25 00:00:00.0000, -1.035715164582374E+00, -5.196202598965804E+00,  4.417633767356330E-02,  7.321415899333205E-03, -1.122180084417573E-03, -1.599390938324208E-04,  3.060217066356957E-02,  5.298601598578168E+00, -3.319539868564511E-04,
2393676.500000000, A.D. 1841-Jul-25 00:00:00.0000, -8.152173843646291E-01, -5.225166346163102E+00,  3.934087491401981E-02,  7.376922333428526E-03, -8.097063040049340E-04, -1.624246949516762E-04,  3.054396967517987E-02,  5.288524409822155E+00, -3.383429838462527E-04,
2393706.500000000, A.D. 1841-Aug-24 00:00:00.0000, -5.932514093149477E-01, -5.244715526452450E+00,  3.443468150642109E-02,  7.419000816217832E-03, -4.932442122624911E-04, -1.646099118880269E-04,  3.048476688649677E-02,  5.278273764722329E+00, -3.448239865081141E-04,
2393736.500000000, A.D. 1841-Sep-23 00:00:00.0000, -3.702135523236038E-01, -5.254761279865281E+00,  2.946615196717096E-02,  7.447707214825010E-03, -1.757855195432792E-04, -1.665746179520198E-04,  3.042467322919236E-02,  5.267868870502304E+00, -3.489911311783703E-04,
2393766.500000000, A.D. 1841-Oct-23 00:00:00.0000, -1.465017584334112E-01, -5.255229437314545E+00,  2.444395067222491E-02,  7.463590695179012E-03,  1.440149440187093E-04, -1.682299859101308E-04,  3.036379369523634E-02,  5.257327905958112E+00, -3.527215674842957E-04,
